[{"OBJECT_NAME":"STARLINK-4074","OBJECT_ID":"2022-053Y","EPOCH":"2026-03-09T10:41:39.958368","MEAN_MOTION":15.08837037,"ECCENTRICITY":0.00013095,"INCLINATION":53.2169,"RA_OF_ASC_NODE":145.3257,"ARG_OF_PERICENTER":94.5415,"MEAN_ANOMALY":265.5727,"EPHEMERIS_TYPE":0,"CLASSIFICATION_TYPE":"U","NORAD_CAT_ID":52678,"ELEMENT_SET_NO":999,"REV_AT_EPOCH":21113,"BSTAR":1.0773696e-5,"MEAN_MOTION_DOT":-1.16e-6,"MEAN_MOTION_DDOT":0},{"OBJECT_NAME":"OKEAN-3","OBJECT_ID":"1991-039A","EPOCH":"2026-03-09T19:29:17.530944","MEAN_MOTION":15.0480588,"ECCENTRICITY":0.00139411,"INCLINATION":82.519,"RA_OF_ASC_NODE":336.7249,"ARG_OF_PERICENTER":337.9296,"MEAN_ANOMALY":22.1329,"EPHEMERIS_TYPE":0,"CLASSIFICATION_TYPE":"U","NORAD_CAT_ID":21397,"ELEMENT_SET_NO":999,"REV_AT_EPOCH":86505,"BSTAR":0.00031884915,"MEAN_MOTION_DOT":4.536e-5,"MEAN_MOTION_DDOT":0}]
